METHANESAT              
1 59101U 24043D   26074.93867885  .00002309  00000+0  20248-3 0  9994
2 59101  97.8281 205.6331 0009880 326.3787  33.6806 14.97626687110693
GOSAT-GW (IBUKI GW)     
1 64694U 25141A   26065.03170321  .00001373  00000+0  25032-3 0  9996
2 64694  98.0504   4.0681 0001432  83.7436 276.3932 14.67569112 36718
GHGSAT-C1               
1 46278U 20061G   26074.93356251  .00029908  00000+0  30553-3 0  9995
2 46278  97.2156 157.4351 0001734  67.1934 292.9509 15.65007175308868
GHGSAT-C12              
1 64529U 25135B   26074.89708743  .00003595  00000+0  17196-3 0  9995
2 64529  97.4623 190.6392 0006224 130.1238 230.0543 15.19616918 40650
GHGSAT-C13              
1 64548U 25135W   26074.94418563  .00003474  00000+0  16306-3 0  9998
2 64548  97.4652 191.1183 0002697  88.0429 272.1115 15.20301069 40685
GHGSAT-C2               
1 47509U 21006DA  26074.86898464  .00006594  00000+0  18654-3 0  9996
2 47509  97.2284 123.7393 0006561 132.8779 227.3017 15.36620773285515
GHGSAT-C3               
1 52737U 22057F   26074.94280604  .00007438  00000+0  23535-3 0  9994
2 52737  97.6435 217.2729 0007304  94.7479 265.4597 15.33057295211242
GHGSAT-C4               
1 52746U 22057Q   26074.89720144  .00007537  00000+0  23852-3 0  9998
2 52746  97.6360 216.1519 0007430  82.4197 277.7888 15.33044467211241
GHGSAT-C5               
1 52744U 22057N   26074.91510787  .00007277  00000+0  23045-3 0  9994
2 52744  97.6524 218.7095 0008283  91.5448 268.6742 15.33034261211244
GHGSAT-C6               
1 56204U 23054AC  26074.99787235  .00014967  00000+0  26700-3 0  9994
2 56204  97.3126 343.3958 0008385  35.4530 324.7278 15.50134290164000
GHGSAT-C7               
1 56209U 23054AH  26074.90683019  .00011322  00000+0  21949-3 0  9997
2 56209  97.3078 342.2050 0008751  29.5637 330.6106 15.47813909163957
GHGSAT-C8               
1 56186U 23054J   26074.90449628  .00015504  00000+0  27643-3 0  9990
2 56186  97.3086 342.6874 0007045  58.6621 301.5320 15.50153295163975
SENTINEL-5P             
1 42969U 17064A   26074.80737319  .00000091  00000+0  64026-4 0  9996
2 42969  98.7890  17.6189 0001115  93.1524 266.9780 14.19500914436316
ENMAP                   
1 52159U 22033C   26074.95482863  .00000408  00000+0  68189-4 0  9993
2 52159  97.9790 158.5288 0001141 100.4274 259.7063 14.74975910212911
PRISMA                  
1 44072U 19015A   26074.73404741  .00000769  00000+0  99528-4 0  9990
2 44072  97.8706 150.8748 0001473  84.4407 275.6975 14.83649537378190
SENTINEL-2A             
1 40697U 15028A   26074.92803688 -.00000070  00000+0 -99602-5 0  9994
2 40697  98.5647 151.1296 0001247  98.7890 261.3434 14.30815043560392
SENTINEL-2B             
1 42063U 17013A   26074.92075936 -.00000034  00000+0  38391-5 0  9993
2 42063  98.5648 151.0239 0001165  96.8227 263.3089 14.30821849471301
SENTINEL-2C             
1 60989U 24157A   26074.95579006  .00000113  00000+0  59768-4 0  9994
2 60989  98.5678 151.0784 0000883 109.7861 250.3417 14.30816620 79654
LANDSAT 8               
1 39084U 13008A   26074.90927566  .00000340  00000+0  85422-4 0  9990
2 39084  98.1907 146.5326 0001257  90.7271 269.4072 14.57116645684310
LANDSAT 9               
1 49260U 21088A   26074.80638608  .00000366  00000+0  91195-4 0  9991
2 49260  98.1928 146.4937 0001120  94.9000 265.2326 14.57131482237408
TANAGER-1               
1 60507U 24149AR  26073.81462010  .00022888  00000+0  51082-3 0  9994
2 60507  97.3780 167.2639 0007334 229.1844 130.8768 15.43532661 88471
